POLYITAN-1              
1 40042U 14033AJ  26197.01905086  .00011154  00000+0  33885-3 0  9996
2 40042  98.0929 226.0285 0007858  61.8331 298.3703 15.34238045658011
TIGRISAT                
1 40043U 14033AK  26197.42245954  .00000694  00000+0  85612-4 0  9996
2 40043  97.7866 346.7713 0048535 340.2740  19.6596 14.85251528649963
AEROCUBE 6A             
1 40045U 14033AM  26197.40966388  .00003078  00000+0  26003-3 0  9994
2 40045  97.7251   4.0545 0036245 276.8041  82.9058 14.98350636650998
AEROCUBE 6B             
1 40046U 14033AN  26197.45028034  .00002514  00000+0  20521-3 0  9990
2 40046  97.7203   3.9444 0038099 265.6557  94.0312 14.99804588651145
CANX-4                  
1 40055U 14034C   26197.46832174  .00000376  00000+0  55530-4 0  9993
2 40055  98.3081  73.8513 0011390 278.2239  81.7680 14.81312269648868
CANX-5                  
1 40056U 14034D   26197.46641287  .00000378  00000+0  55767-4 0  9991
2 40056  98.3083  73.8947 0011392 278.4891  81.5029 14.81329627639670
UKUBE-1                 
1 40074U 14037F   26197.45103896  .00003957  00000+0  22257-3 0  9995
2 40074  98.4243 203.8082 0003248  85.7655 274.3945 15.13959918652988
BRITE-PL2 (HEWELIUSZ)   
1 40119U 14049B   26197.56196338  .00000473  00000+0  49059-4 0  9993
2 40119  97.9121 309.7936 0014201  17.7505 342.4208 14.94688853645831
AEROCUBE 5C             
1 40965U 15058B   26197.33760626  .00001701  00000+0  15824-3 0  9992
2 40965  64.7647 171.8939 0132402  52.0242 309.2743 14.91580191370002
AEROCUBE 7              
1 40966U 15058C   26197.58435806  .00002715  00000+0  22231-3 0  9995
2 40966  64.7615 152.7227 0122135  50.2313 310.9482 14.95921688370358
FOX-1A (AO-85)          
1 40967U 15058D   26197.32760415  .00001582  00000+0  15016-3 0  9999
2 40967  64.7725 188.4142 0132455  45.3781 315.8042 14.91092003117916
SINOD-D 1               
1 40968U 15058E   26197.35829784  .00002573  00000+0  21091-3 0  9999
2 40968  64.7737 167.5457 0121137  41.7235 319.3040 14.96093950121027
SNAP-3 ALICE            
1 40970U 15058G   26197.46215023  .00093635  00000+0  83679-3 0  9998
2 40970  64.7496   2.1620 0024988 347.3823  12.6698 15.67473041121464
LMRST-SAT               
1 40971U 15058H   26197.35748517  .00001536  00000+0  14712-3 0  9997
2 40971  64.7732 184.7151 0134000  47.3672 313.8644 14.90707153117900
SNAP-3 EDDIE            
1 40972U 15058J   26197.49233791  .00109049  00000+0  91592-3 0  9995
2 40972  64.7406 352.5558 0026121 350.1025   9.9606 15.68888516123611
PROPCUBE 3              
1 40973U 15058K   26197.32107422  .00002199  00000+0  18858-3 0  9991
2 40973  64.7674 161.4981 0125868  48.5720 312.6126 14.94421045119157
BISONSAT                
1 40974U 15058L   26197.64106895  .00007955  00000+0  37730-3 0  9995
2 40974  64.7581  78.3568 0082256  35.2538 325.3988 15.16956158120089
SNAP-3 JIMI             
1 40975U 15058M   26197.21023973  .00003868  00000+0  26766-3 0  9990
2 40975  64.7651 127.9226 0107930  43.9445 317.0191 15.02617224118589
PROPCUBE 1 (FLORA)      
1 40976U 15058N   26197.40637571  .00001269  00000+0  12914-3 0  9990
2 40976  64.7718 204.6689 0132569  49.6229 311.6365 14.89331448120614
SINOD-D 3               
1 40977U 15058P   26197.35742027  .00002131  00000+0  18637-3 0  9995
2 40977  64.7705 184.7165 0121164  46.6877 314.4261 14.94178870119116
RAVAN                   
1 41849U 16067B   26197.43018631  .00035670  00000+0  48429-3 0  9997
2 41849  97.9839  90.4429 0002395 210.9134 149.1979 15.57555139532242
CELTEE 1                
1 41850U 16067C   26197.11024024  .00002804  00000+0  13406-3 0  9997
2 41850  98.0631  65.6497 0002370 109.2450 250.9040 15.19946149530273
OPTICUBE 04             
1 41851U 16067D   26197.50689179  .00000886  00000+0  59189-4 0  9996
2 41851  98.0673  51.3183 0016077  23.6130 336.5832 15.09774989529590
AEROCUBE 8D             
1 41852U 16067E   26197.16514345  .00003783  00000+0  15595-3 0  9992
2 41852  98.0638  69.5432 0004517  53.9134 306.2520 15.24777588530489
AEROCUBE 8C             
1 41853U 16067F   26197.18533269  .00003872  00000+0  15832-3 0  9994
2 41853  98.0513  66.7554 0004141 337.9338  22.1719 15.25031596530487
CORVUS BC2              
1 42846U 17042X   26197.42227783  .00001056  00000+0  75471-4 0  9997
2 42846  97.4091 357.6431 0013332  19.0018 341.1704 15.06459280491460
CORVUS BC1              
1 42847U 17042Y   26197.41367349  .00001369  00000+0  96311-4 0  9993
2 42847  97.4121 358.4677 0011528 355.8065   4.3064 15.06623094491490
MAKERSAT 0              
1 43016U 17073D   26197.43085671  .00011478  00000+0  30313-3 0  9994
2 43016  97.4577  80.1901 0105507 167.8681 192.5141 15.33035166470949
SIRION PATHFINDER-2     
1 43759U 18099B   26197.38152842  .00001780  00000+0  99360-4 0  9999
2 43759  97.4236 245.7469 0008573 187.1840 172.9270 15.14781755417048
CORVUS BC4              
1 43767U 18099K   26197.56020988  .00001779  00000+0  10517-3 0  9997
2 43767  97.4049 239.6821 0006557 255.0010 105.0496 15.12707731416841
