OBJECT_NAME,OBJECT_ID,EPOCH,MEAN_MOTION,ECCENTRICITY,INCLINATION,RA_OF_ASC_NODE,ARG_OF_PERICENTER,MEAN_ANOMALY,EPHEMERIS_TYPE,CLASSIFICATION_TYPE,NORAD_CAT_ID,ELEMENT_SET_NO,REV_AT_EPOCH,BSTAR,MEAN_MOTION_DOT,MEAN_MOTION_DDOT
POLYITAN-1,2014-033AJ,2026-07-16T00:27:25.994304,15.34238045,.00078584,98.0929,226.0285,61.8331,298.3703,0,U,40042,999,65801,.33884946E-3,.11154E-3,0
TIGRISAT,2014-033AK,2026-07-16T10:08:20.504256,14.85251528,.00485354,97.7866,346.7713,340.2740,19.6596,0,U,40043,999,64996,.85611782E-4,.694E-5,0
AEROCUBE 6A,2014-033AM,2026-07-16T09:49:54.959232,14.98350636,.00362452,97.7251,4.0545,276.8041,82.9058,0,U,40045,999,65099,.26003054E-3,.3078E-4,0
AEROCUBE 6B,2014-033AN,2026-07-16T10:48:24.221376,14.99804588,.00380991,97.7203,3.9444,265.6557,94.0312,0,U,40046,999,65114,.20521047E-3,.2514E-4,0
CANX-4,2014-034C,2026-07-16T11:14:22.998336,14.81312269,.00113902,98.3081,73.8513,278.2239,81.7680,0,U,40055,999,64886,.55529669E-4,.376E-5,0
CANX-5,2014-034D,2026-07-16T11:11:38.071968,14.81329627,.00113925,98.3083,73.8947,278.4891,81.5029,0,U,40056,999,63967,.55766969E-4,.378E-5,0
UKUBE-1,2014-037F,2026-07-16T10:49:29.766144,15.13959918,.00032481,98.4243,203.8082,85.7655,274.3945,0,U,40074,999,65298,.22256913E-3,.3957E-4,0
BRITE-PL2 (HEWELIUSZ),2014-049B,2026-07-16T13:29:13.636032,14.94688853,.00142018,97.9121,309.7936,17.7505,342.4208,0,U,40119,999,64583,.49058797E-4,.473E-5,0
AEROCUBE 5C,2015-058B,2026-07-16T08:06:09.180864,14.91580191,.01324024,64.7647,171.8939,52.0242,309.2743,0,U,40965,999,37000,.15824459E-3,.1701E-4,0
AEROCUBE 7,2015-058C,2026-07-16T14:01:28.536384,14.95921688,.01221353,64.7615,152.7227,50.2313,310.9482,0,U,40966,999,37035,.22230646E-3,.2715E-4,0
FOX-1A (AO-85),2015-058D,2026-07-16T07:51:44.998560,14.91092003,.01324559,64.7725,188.4142,45.3781,315.8042,0,U,40967,999,11791,.15015652E-3,.1582E-4,0
SINOD-D 1,2015-058E,2026-07-16T08:35:56.933376,14.96093950,.0121137,64.7737,167.5457,41.7235,319.3040,0,U,40968,999,12102,.21091496E-3,.2573E-4,0
SNAP-3 ALICE,2015-058G,2026-07-16T11:05:29.779872,15.67473041,.00249884,64.7496,2.1620,347.3823,12.6698,0,U,40970,999,12146,.83679302E-3,.93635E-3,0
LMRST-SAT,2015-058H,2026-07-16T08:34:46.718688,14.90707153,.01340002,64.7732,184.7151,47.3672,313.8644,0,U,40971,999,11790,.14712495E-3,.1536E-4,0
SNAP-3 EDDIE,2015-058J,2026-07-16T11:48:57.995424,15.68888516,.00261214,64.7406,352.5558,350.1025,9.9606,0,U,40972,999,12361,.91592434E-3,.109049E-2,0
PROPCUBE 3,2015-058K,2026-07-16T07:42:20.812608,14.94421045,.01258683,64.7674,161.4981,48.5720,312.6126,0,U,40973,999,11915,.18858016E-3,.2199E-4,0
BISONSAT,2015-058L,2026-07-16T15:23:08.357280,15.16956158,.00822567,64.7581,78.3568,35.2538,325.3988,0,U,40974,999,12008,.37729554E-3,.7955E-4,0
SNAP-3 JIMI,2015-058M,2026-07-16T05:02:44.712672,15.02617224,.01079308,64.7651,127.9226,43.9445,317.0191,0,U,40975,999,11858,.26765751E-3,.3868E-4,0
PROPCUBE 1 (FLORA),2015-058N,2026-07-16T09:45:10.861344,14.89331448,.01325691,64.7718,204.6689,49.6229,311.6365,0,U,40976,999,12061,.12914476E-3,.1269E-4,0
SINOD-D 3,2015-058P,2026-07-16T08:34:41.111328,14.94178870,.01211642,64.7705,184.7165,46.6877,314.4261,0,U,40977,999,11911,.18636894E-3,.2131E-4,0
RAVAN,2016-067B,2026-07-16T10:19:28.097184,15.57555139,.0002395,97.9839,90.4429,210.9134,149.1979,0,U,41849,999,53224,.48428766E-3,.3567E-3,0
CELTEE 1,2016-067C,2026-07-16T02:38:44.756736,15.19946149,.00023706,98.0631,65.6497,109.2450,250.9040,0,U,41850,999,53027,.13406467E-3,.2804E-4,0
OPTICUBE 04,2016-067D,2026-07-16T12:09:55.450656,15.09774989,.00160779,98.0673,51.3183,23.6130,336.5832,0,U,41851,999,52959,.59188953E-4,.886E-5,0
AEROCUBE 8D,2016-067E,2026-07-16T03:57:48.394080,15.24777588,.00045174,98.0638,69.5432,53.9134,306.2520,0,U,41852,999,53048,.15595178E-3,.3783E-4,0
AEROCUBE 8C,2016-067F,2026-07-16T04:26:52.744416,15.25031596,.00041418,98.0513,66.7554,337.9338,22.1719,0,U,41853,999,53048,.15831542E-3,.3872E-4,0
CORVUS BC2,2017-042X,2026-07-16T10:08:04.804512,15.06459280,.00133322,97.4091,357.6431,19.0018,341.1704,0,U,42846,999,49146,.75471437E-4,.1056E-4,0
CORVUS BC1,2017-042Y,2026-07-16T09:55:41.389536,15.06623094,.00115287,97.4121,358.4677,355.8065,4.3064,0,U,42847,999,49149,.96310527E-4,.1369E-4,0
MAKERSAT 0,2017-073D,2026-07-16T10:20:26.019744,15.33035166,.01055072,97.4577,80.1901,167.8681,192.5141,0,U,43016,999,47094,.30312847E-3,.11478E-3,0
SIRION PATHFINDER-2,2018-099B,2026-07-16T09:09:24.055488,15.14781755,.00085739,97.4236,245.7469,187.1840,172.9270,0,U,43759,999,41704,.99360356E-4,.178E-4,0
CORVUS BC4,2018-099K,2026-07-16T13:26:42.133632,15.12707731,.00065571,97.4049,239.6821,255.0010,105.0496,0,U,43767,999,41684,.10516912E-3,.1779E-4,0
